[{"OBJECT_NAME":"STARLINK-30595","OBJECT_ID":"2023-161Q","EPOCH":"2026-03-09T14:02:34.488960","MEAN_MOTION":15.30182626,"ECCENTRICITY":0.0001103,"INCLINATION":53.1608,"RA_OF_ASC_NODE":166.1598,"ARG_OF_PERICENTER":80.0909,"MEAN_ANOMALY":280.0216,"EPHEMERIS_TYPE":0,"CLASSIFICATION_TYPE":"U","NORAD_CAT_ID":58111,"ELEMENT_SET_NO":999,"REV_AT_EPOCH":13440,"BSTAR":1.1196e-5,"MEAN_MOTION_DOT":-2.8e-7,"MEAN_MOTION_DDOT":0},{"OBJECT_NAME":"CZ-4B DEB","OBJECT_ID":"2004-035N","EPOCH":"2026-03-08T07:19:22.074240","MEAN_MOTION":15.17712882,"ECCENTRICITY":0.00700404,"INCLINATION":97.867,"RA_OF_ASC_NODE":11.9774,"ARG_OF_PERICENTER":119.6038,"MEAN_ANOMALY":241.2197,"EPHEMERIS_TYPE":0,"CLASSIFICATION_TYPE":"U","NORAD_CAT_ID":35270,"ELEMENT_SET_NO":999,"REV_AT_EPOCH":13623,"BSTAR":0.0033008842,"MEAN_MOTION_DOT":0.00071474,"MEAN_MOTION_DDOT":0}]
